0 COSMOS 1275 DEB
1 12767U 81053DL  13281.74705696  .00000538  00000-0  32566-3 0  6739
2 12767 082.9605 130.5418 0039386 067.7725 058.5080 14.04336918639935
0 COSMOS 1275 DEB
1 12767U 81053DL  13282.81675167  .00000530  00000-0  32088-3 0  6749
2 12767 082.9603 129.7117 0039289 064.6726 066.4369 14.04338863640085
0 COSMOS 1275 DEB
1 12767U 81053DL  13284.02597677  .00000663  00000-0  40361-3 0  6754
2 12767 082.9601 128.7734 0039197 061.1565 059.7923 14.04340116640252
0 COSMOS 1275 DEB
1 12767U 81053DL  13286.36495116  .00000691  00000-0  42146-3 0  6774
2 12767 082.9597 126.9583 0039028 054.3558 004.7237 14.04343020640588
0 COSMOS 1275 DEB
1 12767U 81053DL  13287.80346306  .00000817  00000-0  50016-3 0  6786
2 12767 082.9596 125.8417 0038923 050.1786 077.2773 14.04345547640789
0 COSMOS 1275 DEB
1 12767U 81053DL  13289.28500263  .00000785  00000-0  47994-3 0  6790
2 12767 082.9596 124.6918 0038808 045.8807 007.3715 14.04348435640991
0 COSMOS 1275 DEB
1 12767U 81053DL  13290.48951853  .00000822  00000-0  50356-3 0  6809
2 12767 082.9597 123.7570 0038716 042.3899 336.9477 14.04350193641167
0 COSMOS 1275 DEB
1 12767U 81053DL  13292.00613640  .00000854  00000-0  52346-3 0  6815
2 12767 082.9599 122.5798 0038618 038.0108 084.3899 14.04351913641370
0 COSMOS 1275 DEB
1 12767U 81053DL  13293.01189450  .00000909  00000-0  55796-3 0  6828
2 12767 082.9600 121.7991 0038560 035.1337 129.0993 14.04353492641519
0 COSMOS 1275 DEB
1 12767U 81053DL  13294.48808102  .00000902  00000-0  55309-3 0  6836
2 12767 082.9600 120.6532 0038466 030.9302 032.0950 14.04356348641720
0 COSMOS 1275 DEB
1 12767U 81053DL  13295.62966017  .00000978  00000-0  60069-3 0  6846
2 12767 082.9600 119.7672 0038396 027.6703 043.4727 14.04358108641885
